NORAD_CAT_ID,OBJECT_NAME,OBJECT_TYPE,EPOCH,MEAN_MOTION,ECCENTRICITY,INCLINATION,RA_OF_ASC_NODE,ARG_OF_PERICENTER,MEAN_ANOMALY,BSTAR,MEAN_MOTION_DOT,MEAN_MOTION_DDOT,TLE_LINE0,TLE_LINE1,TLE_LINE2,SEMIMAJOR_AXIS,PERIOD,APOGEE,PERIGEE,DECAYED
49152.0,STARLINK-3081,PAYLOAD,2021-11-01 04:00:00,15.69832248,0.000371,70.0012,351.8094,292.5737,66.0344,-0.00067871,-0.00080742,0.0,0 STARLINK-3081,1 49152U 21082Y   21305.16667824 -.00080742  00000-0 -67871-3 0  9990,2 49152  70.0012 351.8094 0003710 292.5737  66.0344 15.69832248  8772,6737.514,91.73,361.879,356.879,0.0
49152.0,STARLINK-3081,PAYLOAD,2021-11-01 14:00:01,15.69739546,0.0003959,70.0006,350.6379,298.3813,254.2153,3.749e-06,2.35e-06,0.0,0 STARLINK-3081,1 49152U 21082Y   21305.58334491  .00000235  00000-0  37490-5 0  9990,2 49152  70.0006 350.6379 0003959 298.3813 254.2153 15.69739546  3683,6737.779,91.735,362.312,356.977,0.0
49152.0,STARLINK-3081,PAYLOAD,2021-11-01 20:00:01,15.69736721,0.0003886,70.0005,349.935,295.4349,229.4942,-0.00011075,-0.00013407,0.0,0 STARLINK-3081,1 49152U 21082Y   21305.83334491 -.00013407  00000-0 -11075-3 0  9994,2 49152  70.0005 349.9350 0003886 295.4349 229.4942 15.69736721  8871,6737.7869999999975,91.735,362.271,357.034,0.0
49152.0,STARLINK-3081,PAYLOAD,2021-11-01 22:00:00,15.69719001,0.0003828,70.0006,349.7008,293.8482,341.8636,0.00019023,0.00022531,0.0,0 STARLINK-3081,1 49152U 21082Y   21305.91667824  .00022531  00000-0  19023-3 0  9999,2 49152  70.0006 349.7008 0003828 293.8482 341.8636 15.69719001  3670,6737.8380000000025,91.736,362.282,357.124,0.0
49152.0,STARLINK-3081,PAYLOAD,2021-11-02 14:00:01,15.6968753,0.0003784,70.0006,347.8268,299.6929,142.2031,0.00047908,0.00057228,0.0,0 STARLINK-3081,1 49152U 21082Y   21306.58334491  .00057228  00000-0  47908-3 0  9998,2 49152  70.0006 347.8268 0003784 299.6929 142.2031 15.69687530  3682,6737.928000000001,91.738,362.343,357.24300000000005,0.0
49152.0,STARLINK-3081,PAYLOAD,2021-11-02 22:00:00,15.69697122,0.000362,70.0005,346.8901,295.1472,229.8506,0.00069055,0.00082866,0.0,0 STARLINK-3081,1 49152U 21082Y   21306.91667824  .00082866  00000-0  69055-3 0  9997,2 49152  70.0005 346.8901 0003620 295.1472 229.8506 15.69697122  9040,6737.901,91.737,362.205,357.326,0.0
49152.0,STARLINK-3081,PAYLOAD,2021-11-03 12:00:00,15.69748654,0.0003847,70.0001,345.2507,299.293,281.1589,0.00033182,0.00039589,0.0,0 STARLINK-3081,1 49152U 21082Y   21307.50001157  .00039589  00000-0  33182-3 0  9990,2 49152  70.0001 345.2507 0003847 299.2930 281.1589 15.69748654  9135,6737.753000000002,91.734,362.21,357.026,0.0
49152.0,STARLINK-3081,PAYLOAD,2021-11-03 14:00:01,15.69774601,0.0003953,69.9997,345.0164,299.1772,32.0538,-0.00012052,-0.00014592,0.0,0 STARLINK-3081,1 49152U 21082Y   21307.58334491 -.00014592  00000-0 -12052-3 0  9990,2 49152  69.9997 345.0164 0003953 299.1772  32.0538 15.69774601  3697,6737.679,91.733,362.207,356.88,0.0
49152.0,STARLINK-3081,PAYLOAD,2021-11-03 20:00:01,15.69753578,0.0003841,69.9997,344.3134,295.1931,8.4768,-0.00043269,-0.00051564,0.0,0 STARLINK-3081,1 49152U 21082Y   21307.83335648 -.00051564  00000-0 -43269-3 0  9997,2 49152  69.9997 344.3134 0003841 295.1931   8.4768 15.69753578  9198,6737.739000000001,91.734,362.192,357.016,0.0
49152.0,STARLINK-3081,PAYLOAD,2021-11-03 22:00:00,15.6969556,0.0003888,69.9997,344.0793,292.4657,121.9352,0.00053573,0.00064095,0.0,0 STARLINK-3081,1 49152U 21082Y   21307.91667824  .00064095  00000-0  53573-3 0  9990,2 49152  69.9997 344.0793 0003888 292.4657 121.9352 15.69695560  3686,6737.905,91.738,362.39,357.15,0.0
49152.0,STARLINK-3081,PAYLOAD,2021-11-04 04:00:00,15.69755561,0.0003929,69.9998,343.3765,292.1576,94.548,-4.8751e-05,-6.03e-05,0.0,0 STARLINK-3081,1 49152U 21082Y   21308.16667824 -.00006030  00000-0 -48751-4 0  9998,2 49152  69.9998 343.3765 0003929 292.1576  94.5480 15.69755561  9244,6737.733,91.734,362.246,356.951,0.0
49152.0,STARLINK-3081,PAYLOAD,2021-11-04 14:00:01,15.697625699999998,0.000409,69.9995,342.2049,297.4611,283.1743,0.00048191,0.00057753,0.0,0 STARLINK-3081,1 49152U 21082Y   21308.58334491  .00057753  00000-0  48191-3 0  9998,2 49152  69.9995 342.2049 0004090 297.4611 283.1743 15.69762570  3679,6737.7130000000025,91.734,362.334,356.8230000000001,0.0
49152.0,STARLINK-3081,PAYLOAD,2021-11-04 22:00:00,15.69824858,0.0003942,69.9995,341.2681,292.6119,11.2488,0.00016046,0.00019048,0.0,0 STARLINK-3081,1 49152U 21082Y   21308.91667824  .00019048  00000-0  16046-3 0  9993,2 49152  69.9995 341.2681 0003942 292.6119  11.2488 15.69824858  9361,6737.535,91.73,362.056,356.744,0.0
49152.0,STARLINK-3081,PAYLOAD,2021-11-05 12:00:00,15.69795519,0.0004211,69.9991,339.6281,296.4996,62.9855,-0.0007028,-0.00083459,0.0,0 STARLINK-3081,1 49152U 21082Y   21309.50001157 -.00083459  00000-0 -70280-3 0  9999,2 49152  69.9991 339.6281 0004211 296.4996  62.9855 15.69795519  9451,6737.619000000002,91.732,362.321,356.647,0.0
49152.0,STARLINK-3081,PAYLOAD,2021-11-05 14:00:01,15.69795863,0.0004203,69.9989,339.3937,296.9749,173.3013,-0.0010417999999999,-0.00123038,0.0,0 STARLINK-3081,1 49152U 21082Y   21309.58334491 -.00123038  00000-0 -10418-2 0  9991,2 49152  69.9989 339.3937 0004203 296.9749 173.3013 15.69795863  3678,6737.618,91.732,362.315,356.651,0.0
49152.0,STARLINK-3081,PAYLOAD,2021-11-05 20:00:01,15.69739503,0.0004088,69.9989,338.6908,293.0769,149.5632,-0.001826,-0.00212725,0.0,0 STARLINK-3081,1 49152U 21082Y   21309.83334491 -.00212725  00000-0 -18260-2 0  9994,2 49152  69.9989 338.6908 0004088 293.0769 149.5632 15.69739503  9508,6737.779,91.735,362.399,356.89,0.0
49152.0,STARLINK-3081,PAYLOAD,2021-11-05 22:00:00,15.69683447,0.0004055,69.9988,338.4563,291.4686,261.9518,-0.0014728,-0.00172042,0.0,0 STARLINK-3081,1 49152U 21082Y   21309.91667824 -.00172042  00000-0 -14728-2 0  9994,2 49152  69.9988 338.4563 0004055 291.4686 261.9518 15.69683447  3721,6737.94,91.738,362.537,357.0730000000001,0.0
49152.0,STARLINK-3081,PAYLOAD,2021-11-06 08:00:03,15.69496997,0.0004065,69.999,337.2852,294.9619,92.2566,0.0015845,0.00191336,0.0,0 STARLINK-3081,1 49152U 21082Y   21310.33336806  .00191336  00000-0  15845-2 0  9991,2 49152  69.9990 337.2852 0004065 294.9619  92.2566 15.69496997  3660,6738.473000000001,91.749,363.078,357.599,0.0
49152.0,STARLINK-3081,PAYLOAD,2021-11-06 12:00:00,15.695469500000002,0.0004061,69.9991,336.8168,298.0322,310.4906,0.0018879,0.00229535,0.0,0 STARLINK-3081,1 49152U 21082Y   21310.50001157  .00229535  00000-0  18879-2 0  9991,2 49152  69.9991 336.8168 0004061 298.0322 310.4906 15.69546950  9617,6738.33,91.746,362.932,357.459,0.0
49152.0,STARLINK-3081,PAYLOAD,2021-11-06 16:00:00,15.69668918,0.0003941,69.9987,336.3482,297.4666,172.5106,0.00058759,0.00070295,0.0,0 STARLINK-3081,1 49152U 21082Y   21310.66667824  .00070295  00000-0  58759-3 0  9996,2 49152  69.9987 336.3482 0003941 297.4666 172.5106 15.69668918  3663,6737.981,91.739,362.502,357.191,0.0
49152.0,STARLINK-3081,PAYLOAD,2021-11-06 20:00:01,15.69690906,0.0003906,69.999,335.8799,294.0531,37.5155,0.00053227,0.00063664,0.0,0 STARLINK-3081,1 49152U 21082Y   21310.83335648  .00063664  00000-0  53227-3 0  9998,2 49152  69.9990 335.8799 0003906 294.0531  37.5155 15.69690906  9669,6737.918000000002,91.738,362.415,357.152,0.0
49152.0,STARLINK-3081,PAYLOAD,2021-11-07 12:00:02,15.69738068,0.0004156,69.999,334.0059,296.6402,201.1532,0.0005732,0.00068755,0.0,0 STARLINK-3081,1 49152U 21082Y   21311.50002315  .00068755  00000-0  57320-3 0  9999,2 49152  69.9990 334.0059 0004156 296.6402 201.1532 15.69738068  9763,6737.783,91.735,362.449,356.848,0.0
49152.0,STARLINK-3081,PAYLOAD,2021-11-07 14:00:01,15.69766419,0.0004172,69.9987,333.7716,296.2138,312.291,0.00019102,0.00022672,0.0,0 STARLINK-3081,1 49152U 21082Y   21311.58334491  .00022672  00000-0  19102-3 0  9994,2 49152  69.9987 333.7716 0004172 296.2138 312.2910 15.69766419  3663,6737.7019999999975,91.733,362.378,356.756,0.0
49152.0,STARLINK-3081,PAYLOAD,2021-11-07 20:00:01,15.69756011,0.000404,69.999,333.0686,292.7748,288.0992,0.00035276,0.00042128,0.0,0 STARLINK-3081,1 49152U 21082Y   21311.83334491  .00042128  00000-0  35276-3 0  9990,2 49152  69.9990 333.0686 0004040 292.7748 288.0992 15.69756011  9818,6737.732,91.734,362.319,356.875,0.0
49152.0,STARLINK-3081,PAYLOAD,2021-11-07 22:00:01,15.69737265,0.0004004,69.9988,332.8344,290.9875,40.7457,0.00081251,0.00097883,0.0,0 STARLINK-3081,1 49152U 21082Y   21311.91668981  .00097883  00000-0  81251-3 0  9995,2 49152  69.9988 332.8344 0004004 290.9875  40.7457 15.69737265  3660,6737.786,91.735,362.349,356.95300000000015,0.0
49152.0,STARLINK-3081,PAYLOAD,2021-11-08 12:00:00,15.6980377,0.0004096,69.999,331.1942,297.5705,89.6376,3.5956e-05,4.092e-05,0.0,0 STARLINK-3081,1 49152U 21082Y   21312.50001157  .00004092  00000-0  35956-4 0  9999,2 49152  69.9990 331.1942 0004096 297.5705  89.6376 15.69803770  9927,6737.595,91.731,362.22,356.701,0.0
49152.0,STARLINK-3081,PAYLOAD,2021-11-08 14:00:01,15.6984685,0.0004008999999999,69.9989,330.96,297.5132,200.4824,-0.00083634,-0.00099296,0.0,0 STARLINK-3081,1 49152U 21082Y   21312.58334491 -.00099296  00000-0 -83634-3 0  9994,2 49152  69.9989 330.9600 0004009 297.5132 200.4824 15.69846850  3674,6737.472,91.729,362.038,356.636,0.0
49152.0,STARLINK-3081,PAYLOAD,2021-11-08 20:00:01,15.69745413,0.0003812,69.9993,330.2571,293.6082,176.81099999999995,0.00021897,0.00026006,0.0,0 STARLINK-3081,1 49152U 21082Y   21312.83334491  .00026006  00000-0  21897-3 0  9992,2 49152  69.9993 330.2571 0003812 293.6082 176.8110 15.69745413  9977,6737.762,91.735,362.196,357.059,0.0
49152.0,STARLINK-3081,PAYLOAD,2021-11-08 22:00:00,15.69714572,0.0003726,69.9993,330.023,292.9133,288.2996,0.00082871,0.00099763,0.0,0 STARLINK-3081,1 49152U 21082Y   21312.91667824  .00099763  00000-0  82871-3 0  9999,2 49152  69.9993 330.0230 0003726 292.9133 288.2996 15.69714572  3662,6737.851,91.736,362.226,357.205,0.0
